PROGRESS-MS 32          
1 65586U 25204A   25328.86728725  .00014562  00000+0  27142-3 0  9994
2 65586  51.6314 230.9455 0003895 164.8499 195.2607 15.49056620   273
CYGNUS NG-23            
1 65616U 25208A   25328.86728725  .00014562  00000+0  27142-3 0  9992
2 65616  51.6314 230.9455 0003895 164.8499 195.2607 15.49056620   222
DRAGONFLY               
1 65729U 98067XH  25329.41083549  .00143850  00000+0  13578-2 0  9990
2 65729  51.6251 224.0765 0006159 178.8848 181.2162 15.66035145 10448
1998-067XJ              
1 65730U 98067XJ  25329.09231932  .00918179  36681-3  27351-2 0  9993
2 65730  51.6184 221.9008 0012397 182.4641 177.6306 15.91735483 10443
1998-067XK              
1 65731U 98067XK  25329.09591289  .00090943  00000+0  10147-2 0  9995
2 65731  51.6290 226.4795 0006088 152.4661 207.6657 15.62013873 10380
RSP-03                  
1 65732U 98067XL  25329.12692465  .00117113  00000+0  12086-2 0  9991
2 65732  51.6285 225.9317 0006858 154.1951 205.9387 15.63889416 10404
GHS-01                  
1 65733U 98067XM  25329.13103959  .00170259  00000+0  15075-2 0  9999
2 65733  51.6287 225.2110 0006751 176.0216 184.0835 15.67520461 10412
YOTSUBA-KULOVER         
1 65941U 98067XN  25328.81659506  .00067730  00000+0  93112-3 0  9996
2 65941  51.6301 229.8604 0002381 123.8915 236.2304 15.56652021  7063
BOTAN                   
1 65942U 98067XP  25328.14789398  .00093675  00000+0  11894-2 0  9999
2 65942  51.6299 232.8955 0004679 127.4021 232.7398 15.58627558  6964
E-KAGAKU-1              
1 65943U 98067XQ  25328.11008911  .00064191  00000+0  88692-3 0  9994
2 65943  51.6308 233.3942 0004004 108.5710 251.5717 15.56534429  6950
HRC MONOBLOCK CAMERA    
1 66052U 98067XR  25329.28052370  .00041884  00000+0  67240-3 0  9993
2 66052  51.6295 228.4551 0004707 114.6049 245.5431 15.52605893  6126
HTV-X1                  
1 66174U 25241A   25328.86728725  .00014562  00000+0  27142-3 0  9999
2 66174  51.6314 230.9455 0003895 164.8499 195.2607 15.49056620  1458
